{"type": "FeatureCollection", "features": [ {"type": "Feature", "properties": {"norad_id": 37994, "name": "COSMOS 2251 DEB", "group": "cosmos-2251-debris", "lat": -24.73552334064673, "lon": 120.0363221663285, "alt_km": 780.7716093342533, "timestamp": "2025-12-03T15:48:03.463895+00:00", "meta": {"OBJECT_NAME": "COSMOS 2251 DEB", "OBJECT_ID": "1993-036BQV", "EPOCH": "2025-12-03T06:30:34.271136", "MEAN_MOTION": 14.39585493, "ECCENTRICITY": 0.00224786, "INCLINATION": 74.0358, "RA_OF_ASC_NODE": 293.1728, "ARG_OF_PERICENTER": 14.5973, "MEAN_ANOMALY": 345.5826, "EPHEMERIS_TYPE": 0, "CLASSIFICATION_TYPE": "U", "NORAD_CAT_ID": 37994, "ELEMENT_SET_NO": 999, "REV_AT_EPOCH": 76928, "BSTAR": 0.00056190338, "MEAN_MOTION_DOT": 1.734e-05, "MEAN_MOTION_DDOT": 0}, "tle": {"line1": "1 37994U 93036BQV 25337.27122999  .00001734  00000+0  56190-3 0  9992", "line2": "2 37994  74.0358 293.1728 0022478  14.5973 345.5826 14.39585493769281"}}, "geometry": {"type": "Point", "coordinates": [120.0363221663285, -24.73552334064673]}}, {"type": "Feature", "properties": {"norad_id": 37996, "name": "COSMOS 2251 DEB", "group": "cosmos-2251-debris", "lat": -11.68371343834858, "lon": -144.21954343768294, "alt_km": 708.6263444201049, "timestamp": "2025-12-03T15:48:03.463904+00:00", "meta": {"OBJECT_NAME": "COSMOS 2251 DEB", "OBJECT_ID": "1993-036BQX", "EPOCH": "2025-11-16T18:35:00.708864", "MEAN_MOTION": 14.09591608, "ECCENTRICITY": 0.02219827, "INCLINATION": 74.0658, "RA_OF_ASC_NODE": 248.8308, "ARG_OF_PERICENTER": 5.4709, "MEAN_ANOMALY": 354.8776, "EPHEMERIS_TYPE": 0, "CLASSIFICATION_TYPE": "U", "NORAD_CAT_ID": 37996, "ELEMENT_SET_NO": 999, "REV_AT_EPOCH": 55769, "BSTAR": 0.0096790999, "MEAN_MOTION_DOT": 0.00021331, "MEAN_MOTION_DDOT": 0}, "tle": {"line1": "1 37996U 93036BQX 25320.77431376  .00021331  00000+0  96791-2 0  9998", "line2": "2 37996  74.0658 248.8308 0221982   5.4709 354.8776 14.09591608557693"}}, "geometry": {"type": "Point", "coordinates": [-144.21954343768294, -11.68371343834858]}}, {"type": "Feature", "properties": {"norad_id": 37998, "name": "COSMOS 2251 DEB", "group": "cosmos-2251-debris", "lat": -72.64249462954103, "lon": -174.2841492533887, "alt_km": 738.6725849790346, "timestamp": "2025-12-03T15:48:03.463913+00:00", "meta": {"OBJECT_NAME": "COSMOS 2251 DEB", "OBJECT_ID": "1993-036BQZ", "EPOCH": "2025-11-29T12:31:01.771392", "MEAN_MOTION": 14.45395467, "ECCENTRICITY": 0.00197878, "INCLINATION": 74.0369, "RA_OF_ASC_NODE": 259.7366, "ARG_OF_PERICENTER": 336.2714, "MEAN_ANOMALY": 23.753, "EPHEMERIS_TYPE": 0, "CLASSIFICATION_TYPE": "U", "NORAD_CAT_ID": 37998, "ELEMENT_SET_NO": 999, "REV_AT_EPOCH": 64096, "BSTAR": 0.00059073677, "MEAN_MOTION_DOT": 2.057e-05, "MEAN_MOTION_DDOT": 0}, "tle": {"line1": "1 37998U 93036BQZ 25333.52154828  .00002057  00000+0  59074-3 0  9999", "line2": "2 37998  74.0369 259.7366 0019787 336.2714  23.7530 14.45395467640966"}}, "geometry": {"type": "Point", "coordinates": [-174.2841492533887, -72.64249462954103]}}, {"type": "Feature", "properties": {"norad_id": 38001, "name": "COSMOS 2251 DEB", "group": "cosmos-2251-debris", "lat": -36.63899018374672, "lon": -17.450557567245255, "alt_km": 632.9333424374272, "timestamp": "2025-12-03T15:48:03.463922+00:00", "meta": {"OBJECT_NAME": "COSMOS 2251 DEB", "OBJECT_ID": "1993-036BRC", "EPOCH": "2025-12-01T22:54:46.080864", "MEAN_MOTION": 14.78885879, "ECCENTRICITY": 0.00651552, "INCLINATION": 73.9989, "RA_OF_ASC_NODE": 153.583, "ARG_OF_PERICENTER": 305.0722, "MEAN_ANOMALY": 207.3284, "EPHEMERIS_TYPE": 0, "CLASSIFICATION_TYPE": "U", "NORAD_CAT_ID": 38001, "ELEMENT_SET_NO": 999, "REV_AT_EPOCH": 74548, "BSTAR": 0.00081789064, "MEAN_MOTION_DOT": 6.215e-05, "MEAN_MOTION_DDOT": 0}, "tle": {"line1": "1 38001U 93036BRC 25335.95470001  .00006215  00000+0  81789-3 0  9996", "line2": "2 38001  73.9989 153.5830 0065155 305.0722 207.3284 14.78885879745484"}}, "geometry": {"type": "Point", "coordinates": [-17.450557567245255, -36.63899018374672]}}, {"type": "Feature", "properties": {"norad_id": 38006, "name": "COSMOS 2251 DEB", "group": "cosmos-2251-debris", "lat": 60.64744489295093, "lon": 86.18529438759361, "alt_km": 706.6084564496987, "timestamp": "2025-12-03T15:48:03.463931+00:00", "meta": {"OBJECT_NAME": "COSMOS 2251 DEB", "OBJECT_ID": "1993-036BRH", "EPOCH": "2025-12-01T12:00:57.044736", "MEAN_MOTION": 14.45530874, "ECCENTRICITY": 0.00745141, "INCLINATION": 73.8466, "RA_OF_ASC_NODE": 59.2312, "ARG_OF_PERICENTER": 10.3044, "MEAN_ANOMALY": 349.9618, "EPHEMERIS_TYPE": 0, "CLASSIFICATION_TYPE": "U", "NORAD_CAT_ID": 38006, "ELEMENT_SET_NO": 999, "REV_AT_EPOCH": 62797, "BSTAR": 0.0024598906, "MEAN_MOTION_DOT": 8.963e-05, "MEAN_MOTION_DDOT": 0}, "tle": {"line1": "1 38006U 93036BRH 25335.50066024  .00008963  00000+0  24599-2 0  9995", "line2": "2 38006  73.8466  59.2312 0074514  10.3044 349.9618 14.45530874627970"}}, "geometry": {"type": "Point", "coordinates": [86.18529438759361, 60.64744489295093]}}, {"type": "Feature", "properties": {"norad_id": 38054, "name": "COSMOS 2251 DEB", "group": "cosmos-2251-debris", "lat": 30.350057425965364, "lon": -69.65124690869357, "alt_km": 1196.645503515063, "timestamp": "2025-12-03T15:48:03.463940+00:00", "meta": {"OBJECT_NAME": "COSMOS 2251 DEB", "OBJECT_ID": "1993-036BRL", "EPOCH": "2025-12-02T22:19:42.729888", "MEAN_MOTION": 13.62240867, "ECCENTRICITY": 0.03612337, "INCLINATION": 73.958, "RA_OF_ASC_NODE": 281.8404, "ARG_OF_PERICENTER": 261.8039, "MEAN_ANOMALY": 157.9186, "EPHEMERIS_TYPE": 0, "CLASSIFICATION_TYPE": "U", "NORAD_CAT_ID": 38054, "ELEMENT_SET_NO": 999, "REV_AT_EPOCH": 67046, "BSTAR": 0.0040803835, "MEAN_MOTION_DOT": 4.866e-05, "MEAN_MOTION_DDOT": 0}, "tle": {"line1": "1 38054U 93036BRL 25336.93035567  .00004866  00000+0  40804-2 0  9999", "line2": "2 38054  73.9580 281.8404 0361233 261.8039 157.9186 13.62240867670467"}}, "geometry": {"type": "Point", "coordinates": [-69.65124690869357, 30.350057425965364]}}, {"type": "Feature", "properties": {"norad_id": 38055, "name": "COSMOS 2251 DEB", "group": "cosmos-2251-debris", "lat": 2.0701342620577305, "lon": 43.9947226276309, "alt_km": 687.7881501187285, "timestamp": "2025-12-03T15:48:03.463949+00:00", "meta": {"OBJECT_NAME": "COSMOS 2251 DEB", "OBJECT_ID": "1993-036BRM", "EPOCH": "2025-11-30T11:23:37.489344", "MEAN_MOTION": 14.76741647, "ECCENTRICITY": 0.00655995, "INCLINATION": 74.0094, "RA_OF_ASC_NODE": 230.8354, "ARG_OF_PERICENTER": 1.0653, "MEAN_ANOMALY": 178.44, "EPHEMERIS_TYPE": 0, "CLASSIFICATION_TYPE": "U", "NORAD_CAT_ID": 38055, "ELEMENT_SET_NO": 999, "REV_AT_EPOCH": 60501, "BSTAR": 0.0010104465, "MEAN_MOTION_DOT": 7.307e-05, "MEAN_MOTION_DDOT": 0}, "tle": {"line1": "1 38055U 93036BRM 25334.47473946  .00007307  00000+0  10104-2 0  9997", "line2": "2 38055  74.0094 230.8354 0065599   1.0653 178.4400 14.76741647605014"}}, "geometry": {"type": "Point", "coordinates": [43.9947226276309, 2.0701342620577305]}}, {"type": "Feature", "properties": {"norad_id": 38060, "name": "COSMOS 2251 DEB", "group": "cosmos-2251-debris", "lat": 64.15548766502476, "lon": 96.53061082178932, "alt_km": 647.7237802460968, "timestamp": "2025-12-03T15:48:03.463958+00:00", "meta": {"OBJECT_NAME": "COSMOS 2251 DEB", "OBJECT_ID": "1993-036BRS", "EPOCH": "2025-11-30T16:46:11.567136", "MEAN_MOTION": 14.63742552, "ECCENTRICITY": 0.0057629, "INCLINATION": 74.0424, "RA_OF_ASC_NODE": 318.4162, "ARG_OF_PERICENTER": 67.815, "MEAN_ANOMALY": 292.9119, "EPHEMERIS_TYPE": 0, "CLASSIFICATION_TYPE": "U", "NORAD_CAT_ID": 38060, "ELEMENT_SET_NO": 999, "REV_AT_EPOCH": 71788, "BSTAR": 0.00051174098, "MEAN_MOTION_DOT": 2.701e-05, "MEAN_MOTION_DDOT": 0}, "tle": {"line1": "1 38060U 93036BRS 25334.69874499  .00002701  00000+0  51174-3 0  9991", "line2": "2 38060  74.0424 318.4162 0057629  67.8150 292.9119 14.63742552717884"}}, "geometry": {"type": "Point", "coordinates": [96.53061082178932, 64.15548766502476]}}, {"type": "Feature", "properties": {"norad_id": 38062, "name": "COSMOS 2251 DEB", "group": "cosmos-2251-debris", "lat": 21.73635073587277, "lon": 122.2350276694767, "alt_km": 583.2889548039693, "timestamp": "2025-12-03T15:48:03.463968+00:00", "meta": {"OBJECT_NAME": "COSMOS 2251 DEB", "OBJECT_ID": "1993-036BRU", "EPOCH": "2025-12-02T15:30:52.155072", "MEAN_MOTION": 14.9400707, "ECCENTRICITY": 0.0011947, "INCLINATION": 74.0086, "RA_OF_ASC_NODE": 310.8403, "ARG_OF_PERICENTER": 79.5377, "MEAN_ANOMALY": 37.1284, "EPHEMERIS_TYPE": 0, "CLASSIFICATION_TYPE": "U", "NORAD_CAT_ID": 38062, "ELEMENT_SET_NO": 999, "REV_AT_EPOCH": 62879, "BSTAR": 0.0028464492, "MEAN_MOTION_DOT": 0.00030496, "MEAN_MOTION_DDOT": 0}, "tle": {"line1": "1 38062U 93036BRU 25336.64643698  .00030496  00000+0  28464-2 0  9992", "line2": "2 38062  74.0086 310.8403 0011947  79.5377  37.1284 14.94007070628794"}}, "geometry": {"type": "Point", "coordinates": [122.2350276694767, 21.73635073587277]}}, {"type": "Feature", "properties": {"norad_id": 38064, "name": "COSMOS 2251 DEB", "group": "cosmos-2251-debris", "lat": -59.89657079039531, "lon": -9.003048353409978, "alt_km": 680.3268133818729, "timestamp": "2025-12-03T15:48:03.463977+00:00", "meta": {"OBJECT_NAME": "COSMOS 2251 DEB", "OBJECT_ID": "1993-036BRW", "EPOCH": "2025-12-02T10:38:59.788320", "MEAN_MOTION": 14.5615683, "ECCENTRICITY": 0.00475633, "INCLINATION": 74.0206, "RA_OF_ASC_NODE": 143.6816, "ARG_OF_PERICENTER": 264.8725, "MEAN_ANOMALY": 94.7009, "EPHEMERIS_TYPE": 0, "CLASSIFICATION_TYPE": "U", "NORAD_CAT_ID": 38064, "ELEMENT_SET_NO": 999, "REV_AT_EPOCH": 71715, "BSTAR": 0.0011546994, "MEAN_MOTION_DOT": 5.15e-05, "MEAN_MOTION_DDOT": 0}, "tle": {"line1": "1 38064U 93036BRW 25336.44374755  .00005150  00000+0  11547-2 0  9990", "line2": "2 38064  74.0206 143.6816 0047563 264.8725  94.7009 14.56156830717159"}}, "geometry": {"type": "Point", "coordinates": [-9.003048353409978, -59.89657079039531]}}]}